{
  "type": "FeatureCollection",
  "features": [
    {
      "type": "Feature",
      "properties": {
        "norad_id": 40792,
        "name": "COSMOS 2251 DEB",
        "group": "cosmos-2251-debris",
        "lat": -1.637383982880832,
        "lon": 36.11749719513672,
        "alt_km": 679.9478741727426,
        "timestamp": "2025-12-18T08:58:43.813233+00:00",
        "meta_object_name": "COSMOS 2251 DEB",
        "meta_object_id": "1993-036BVV",
        "meta_epoch": "2025-12-13T21:48:53.616096",
        "meta_mean_motion": 14.67590278,
        "meta_eccentricity": 0.00153774,
        "meta_inclination": 74.0462,
        "meta_ra_of_asc_node": 45.2013,
        "meta_arg_of_pericenter": 149.8992,
        "meta_mean_anomaly": 27.0176,
        "meta_ephemeris_type": 0,
        "meta_classification_type": "U",
        "meta_norad_cat_id": 40792,
        "meta_element_set_no": 999,
        "meta_rev_at_epoch": 63201,
        "meta_bstar": 0.0011407186,
        "meta_mean_motion_dot": 6.465e-05,
        "meta_mean_motion_ddot": 0,
        "tle_line1": "1 40792U 93036BVV 25347.90895389  .00006465  00000+0  11407-2 0  9990",
        "tle_line2": "2 40792  74.0462  45.2013 0015377 149.8992  27.0176 14.67590278632011"
      },
      "geometry": {
        "type": "Point",
        "coordinates": [
          36.11749719513672,
          -1.637383982880832
        ]
      }
    },
    {
      "type": "Feature",
      "properties": {
        "norad_id": 40794,
        "name": "COSMOS 2251 DEB",
        "group": "cosmos-2251-debris",
        "lat": -17.389250648596192,
        "lon": -61.96789116926978,
        "alt_km": 586.6764318145579,
        "timestamp": "2025-12-18T08:58:43.813243+00:00",
        "meta_object_name": "COSMOS 2251 DEB",
        "meta_object_id": "1993-036BVX",
        "meta_epoch": "2025-12-13T15:37:41.141568",
        "meta_mean_motion": 14.93159868,
        "meta_eccentricity": 0.00107848,
        "meta_inclination": 73.9763,
        "meta_ra_of_asc_node": 122.399,
        "meta_arg_of_pericenter": 261.0962,
        "meta_mean_anomaly": 116.104,
        "meta_ephemeris_type": 0,
        "meta_classification_type": "U",
        "meta_norad_cat_id": 40794,
        "meta_element_set_no": 999,
        "meta_rev_at_epoch": 61938,
        "meta_bstar": 0.0047306735,
        "meta_mean_motion_dot": 0.00049759,
        "meta_mean_motion_ddot": 0,
        "tle_line1": "1 40794U 93036BVX 25347.65117062  .00049759  00000+0  47307-2 0  9990",
        "tle_line2": "2 40794  73.9763 122.3990 0010784 261.0962 116.1040 14.93159868619387"
      },
      "geometry": {
        "type": "Point",
        "coordinates": [
          -61.96789116926978,
          -17.389250648596192
        ]
      }
    },
    {
      "type": "Feature",
      "properties": {
        "norad_id": 40796,
        "name": "COSMOS 2251 DEB",
        "group": "cosmos-2251-debris",
        "lat": 3.3634790742783007,
        "lon": 132.00998854712478,
        "alt_km": 630.5310827949934,
        "timestamp": "2025-12-18T08:58:43.813253+00:00",
        "meta_object_name": "COSMOS 2251 DEB",
        "meta_object_id": "1993-036BVZ",
        "meta_epoch": "2025-12-16T16:32:21.335712",
        "meta_mean_motion": 14.81756941,
        "meta_eccentricity": 0.00560758,
        "meta_inclination": 74.0116,
        "meta_ra_of_asc_node": 134.3763,
        "meta_arg_of_pericenter": 270.3291,
        "meta_mean_anomaly": 108.1026,
        "meta_ephemeris_type": 0,
        "meta_classification_type": "U",
        "meta_norad_cat_id": 40796,
        "meta_element_set_no": 999,
        "meta_rev_at_epoch": 76217,
        "meta_bstar": 0.0007869592,
        "meta_mean_motion_dot": 6.348e-05,
        "meta_mean_motion_ddot": 0,
        "tle_line1": "1 40796U 93036BVZ 25350.68913583  .00006348  00000+0  78696-3 0  9994",
        "tle_line2": "2 40796  74.0116 134.3763 0056075 270.3291 108.1026 14.81756941762178"
      },
      "geometry": {
        "type": "Point",
        "coordinates": [
          132.00998854712478,
          3.3634790742783007
        ]
      }
    },
    {
      "type": "Feature",
      "properties": {
        "norad_id": 40797,
        "name": "COSMOS 2251 DEB",
        "group": "cosmos-2251-debris",
        "lat": -45.721078090309646,
        "lon": 66.36486511774147,
        "alt_km": 501.39587184508036,
        "timestamp": "2025-12-18T08:58:43.813263+00:00",
        "meta_object_name": "COSMOS 2251 DEB",
        "meta_object_id": "1993-036BWA",
        "meta_epoch": "2025-12-15T23:59:57.193728",
        "meta_mean_motion": 15.11379927,
        "meta_eccentricity": 0.00719971,
        "meta_inclination": 73.9214,
        "meta_ra_of_asc_node": 88.513,
        "meta_arg_of_pericenter": 359.8432,
        "meta_mean_anomaly": 0.2724,
        "meta_ephemeris_type": 0,
        "meta_classification_type": "U",
        "meta_norad_cat_id": 40797,
        "meta_element_set_no": 999,
        "meta_rev_at_epoch": 64693,
        "meta_bstar": 0.00052373228,
        "meta_mean_motion_dot": 9.374e-05,
        "meta_mean_motion_ddot": 0,
        "tle_line1": "1 40797U 93036BWA 25349.99996752  .00009374  00000+0  52373-3 0  9992",
        "tle_line2": "2 40797  73.9214  88.5130 0071997 359.8432   0.2724 15.11379927646935"
      },
      "geometry": {
        "type": "Point",
        "coordinates": [
          66.36486511774147,
          -45.721078090309646
        ]
      }
    },
    {
      "type": "Feature",
      "properties": {
        "norad_id": 40799,
        "name": "COSMOS 2251 DEB",
        "group": "cosmos-2251-debris",
        "lat": 21.656138130621084,
        "lon": 93.46737452016957,
        "alt_km": 528.4598332272872,
        "timestamp": "2025-12-18T08:58:43.813273+00:00",
        "meta_object_name": "COSMOS 2251 DEB",
        "meta_object_id": "1993-036BWC",
        "meta_epoch": "2025-12-16T13:34:01.060320",
        "meta_mean_motion": 14.96697184,
        "meta_eccentricity": 0.01191597,
        "meta_inclination": 73.9265,
        "meta_ra_of_asc_node": 90.5746,
        "meta_arg_of_pericenter": 331.7111,
        "meta_mean_anomaly": 27.7633,
        "meta_ephemeris_type": 0,
        "meta_classification_type": "U",
        "meta_norad_cat_id": 40799,
        "meta_element_set_no": 999,
        "meta_rev_at_epoch": 50034,
        "meta_bstar": 0.00030724083,
        "meta_mean_motion_dot": 4.009e-05,
        "meta_mean_motion_ddot": 0,
        "tle_line1": "1 40799U 93036BWC 25350.56529005  .00004009  00000+0  30724-3 0  9998",
        "tle_line2": "2 40799  73.9265  90.5746 0119159 331.7111  27.7633 14.96697184500342"
      },
      "geometry": {
        "type": "Point",
        "coordinates": [
          93.46737452016957,
          21.656138130621084
        ]
      }
    },
    {
      "type": "Feature",
      "properties": {
        "norad_id": 40802,
        "name": "COSMOS 2251 DEB",
        "group": "cosmos-2251-debris",
        "lat": 40.407847368874975,
        "lon": 156.05937463505825,
        "alt_km": 675.4117669155385,
        "timestamp": "2025-12-18T08:58:43.813283+00:00",
        "meta_object_name": "COSMOS 2251 DEB",
        "meta_object_id": "1993-036BWF",
        "meta_epoch": "2025-12-17T16:32:13.649568",
        "meta_mean_motion": 14.77662029,
        "meta_eccentricity": 0.00629965,
        "meta_inclination": 74.0395,
        "meta_ra_of_asc_node": 143.3018,
        "meta_arg_of_pericenter": 241.0781,
        "meta_mean_anomaly": 118.4067,
        "meta_ephemeris_type": 0,
        "meta_classification_type": "U",
        "meta_norad_cat_id": 40802,
        "meta_element_set_no": 999,
        "meta_rev_at_epoch": 64482,
        "meta_bstar": 0.00061564393,
        "meta_mean_motion_dot": 4.522e-05,
        "meta_mean_motion_ddot": 0,
        "tle_line1": "1 40802U 93036BWF 25351.68904687  .00004522  00000+0  61564-3 0  9996",
        "tle_line2": "2 40802  74.0395 143.3018 0062996 241.0781 118.4067 14.77662029644824"
      },
      "geometry": {
        "type": "Point",
        "coordinates": [
          156.05937463505825,
          40.407847368874975
        ]
      }
    },
    {
      "type": "Feature",
      "properties": {
        "norad_id": 40803,
        "name": "COSMOS 2251 DEB",
        "group": "cosmos-2251-debris",
        "lat": 71.93164861924298,
        "lon": 102.77700734665497,
        "alt_km": 737.907366621348,
        "timestamp": "2025-12-18T08:58:43.813293+00:00",
        "meta_object_name": "COSMOS 2251 DEB",
        "meta_object_id": "1993-036BWG",
        "meta_epoch": "2025-12-05T22:55:29.451072",
        "meta_mean_motion": 14.51792027,
        "meta_eccentricity": 0.00362816,
        "meta_inclination": 74.0122,
        "meta_ra_of_asc_node": 64.6912,
        "meta_arg_of_pericenter": 281.8159,
        "meta_mean_anomaly": 77.8934,
        "meta_ephemeris_type": 0,
        "meta_classification_type": "U",
        "meta_norad_cat_id": 40803,
        "meta_element_set_no": 999,
        "meta_rev_at_epoch": 58654,
        "meta_bstar": 0.00062935795,
        "meta_mean_motion_dot": 2.525e-05,
        "meta_mean_motion_ddot": 0,
        "tle_line1": "1 40803U 93036BWG 25339.95520198  .00002525  00000+0  62936-3 0  9999",
        "tle_line2": "2 40803  74.0122  64.6912 0036281 281.8159  77.8934 14.51792027586549"
      },
      "geometry": {
        "type": "Point",
        "coordinates": [
          102.77700734665497,
          71.93164861924298
        ]
      }
    }
  ]
}